start=new Date('2022-08-19T00:00:00.000Z').valueOf();
sats=[{"NORAD_CAT_ID":"50836","OBJECT_ID":"2022-001AK","DECAY_DATE":null,"MEAN_ANOMALY":"292.4158","GP_ID":"210476917","SEMIMAJOR_AXIS":"6917.899","BSTAR":"0.00004125200000","INCLINATION":"53.2174","TLE_LINE2":"2 50836  53.2174 251.2324 0001676  67.7012 292.4158 15.08833996 34031","RA_OF_ASC_NODE":"251.2324","FILE":"3539615","MEAN_ELEMENT_THEORY":"SGP4","CLASSIFICATION_TYPE":"U","OBJECT_TYPE":"PAYLOAD","ARG_OF_PERICENTER":"67.7012","LAUNCH_DATE":"2022-01-06","CENTER_NAME":"EARTH","REV_AT_EPOCH":"3403","ELEMENT_SET_NO":"999","TIME_SYSTEM":"UTC","MEAN_MOTION_DDOT":"0.0000000000000","REF_FRAME":"TEME","APOAPSIS":"540.923","RCS_SIZE":"LARGE","MEAN_MOTION":"15.08833996","ECCENTRICITY":"0.00016760","PERIOD":"95.438","MEAN_MOTION_DOT":"0.00000368","OBJECT_NAME":"STARLINK-3330","TLE_LINE1":"1 50836U 22001AK  22230.53895604  .00000368  00000-0  41252-4 0  9991","SITE":"AFETR","EPOCH":"2022-08-18T12:56:05.801856","COUNTRY_CODE":"US","EPHEMERIS_TYPE":"0","PERIAPSIS":"538.604"},{"EPHEMERIS_TYPE":"0","PERIAPSIS":"538.485","TLE_LINE1":"1 50837U 22001AL  22230.43314894  .00002026  00000-0  14531-3 0  9990","SITE":"AFETR","EPOCH":"2022-08-18T10:23:44.068416","COUNTRY_CODE":"US","APOAPSIS":"540.974","RCS_SIZE":"LARGE","MEAN_MOTION":"15.08845076","PERIOD":"95.437","OBJECT_NAME":"STARLINK-3318","MEAN_MOTION_DOT":"0.00002026","ECCENTRICITY":"0.00017990","ELEMENT_SET_NO":"999","TIME_SYSTEM":"UTC","MEAN_MOTION_DDOT":"0.0000000000000","REF_FRAME":"TEME","OBJECT_TYPE":"PAYLOAD","ARG_OF_PERICENTER":"54.7675","LAUNCH_DATE":"2022-01-06","CENTER_NAME":"EARTH","REV_AT_EPOCH":"3426","MEAN_ELEMENT_THEORY":"SGP4","CLASSIFICATION_TYPE":"U","GP_ID":"210442936","SEMIMAJOR_AXIS":"6917.865","BSTAR":"0.00014531000000","INCLINATION":"53.2178","TLE_LINE2":"2 50837  53.2178 241.7199 0001799  54.7675 305.3485 15.08845076 34261","RA_OF_ASC_NODE":"241.7199","FILE":"3539281","NORAD_CAT_ID":"50837","OBJECT_ID":"2022-001AL","DECAY_DATE":null,"MEAN_ANOMALY":"305.3485"},{"PERIAPSIS":"538.331","EPHEMERIS_TYPE":"0","SITE":"AFETR","TLE_LINE1":"1 50838U 22001AM  22230.37335240 -.00000511  00000-0 -13984-4 0  9993","COUNTRY_CODE":"US","EPOCH":"2022-08-18T08:57:37.647360","MEAN_MOTION":"15.08847696","RCS_SIZE":"LARGE","APOAPSIS":"541.112","OBJECT_NAME":"STARLINK-3322","PERIOD":"95.437","MEAN_MOTION_DOT":"-0.00000511","ECCENTRICITY":"0.00020100","MEAN_MOTION_DDOT":"0.0000000000000","TIME_SYSTEM":"UTC","ELEMENT_SET_NO":"999","REF_FRAME":"TEME","OBJECT_TYPE":"PAYLOAD","REV_AT_EPOCH":"3411","CENTER_NAME":"EARTH","LAUNCH_DATE":"2022-01-06","ARG_OF_PERICENTER":"61.1174","MEAN_ELEMENT_THEORY":"SGP4","CLASSIFICATION_TYPE":"U","TLE_LINE2":"2 50838  53.2169 251.9842 0002010  61.1174 299.0019 15.08847696 34119","INCLINATION":"53.2169","BSTAR":"-0.00001398400000","SEMIMAJOR_AXIS":"6917.857","GP_ID":"210443687","FILE":"3539281","RA_OF_ASC_NODE":"251.9842","OBJECT_ID":"2022-001AM","NORAD_CAT_ID":"50838","MEAN_ANOMALY":"299.0019","DECAY_DATE":null},{"MEAN_ANOMALY":"295.9330","DECAY_DATE":null,"OBJECT_ID":"2022-001AN","NORAD_CAT_ID":"50839","RA_OF_ASC_NODE":"251.6275","FILE":"3539605","BSTAR":"0.00005911000000","GP_ID":"210453024","SEMIMAJOR_AXIS":"6917.878","TLE_LINE2":"2 50839  53.2161 251.6275 0001425  64.1809 295.9330 15.08840768 35391","INCLINATION":"53.2161","CLASSIFICATION_TYPE":"U","MEAN_ELEMENT_THEORY":"SGP4","CENTER_NAME":"EARTH","LAUNCH_DATE":"2022-01-06","ARG_OF_PERICENTER":"64.1809","REV_AT_EPOCH":"3539","OBJECT_TYPE":"PAYLOAD","REF_FRAME":"TEME","TIME_SYSTEM":"UTC","ELEMENT_SET_NO":"999","MEAN_MOTION_DDOT":"0.0000000000000","PERIOD":"95.438","MEAN_MOTION_DOT":"0.00000653","ECCENTRICITY":"0.00014250","OBJECT_NAME":"STARLINK-3320","APOAPSIS":"540.729","RCS_SIZE":"LARGE","MEAN_MOTION":"15.08840768","COUNTRY_CODE":"US","EPOCH":"2022-08-18T10:48:54.592704","SITE":"AFETR","TLE_LINE1":"1 50839U 22001AN  22230.45063186  .00000653  00000-0  59110-4 0  9996","PERIAPSIS":"538.757","EPHEMERIS_TYPE":"0"},{"PERIOD":"95.437","OBJECT_NAME":"STARLINK-3295","MEAN_MOTION_DOT":"0.00001999","ECCENTRICITY":"0.00016660","RCS_SIZE":"LARGE","MEAN_MOTION":"15.08848791","APOAPSIS":"540.871","REF_FRAME":"TEME","MEAN_MOTION_DDOT":"0.0000000000000","ELEMENT_SET_NO":"999","TIME_SYSTEM":"UTC","EPHEMERIS_TYPE":"0","PERIAPSIS":"538.566","EPOCH":"2022-08-18T09:08:12.935328","COUNTRY_CODE":"US","TLE_LINE1":"1 50840U 22001AP  22230.38070527  .00001999  00000-0  14361-3 0  9999","SITE":"AFETR","FILE":"3539281","RA_OF_ASC_NODE":"251.9349","INCLINATION":"53.2161","TLE_LINE2":"2 50840  53.2161 251.9349 0001666  53.6196 306.4950 15.08848791 34105","SEMIMAJOR_AXIS":"6917.854","GP_ID":"210442188","BSTAR":"0.00014361000000","DECAY_DATE":null,"MEAN_ANOMALY":"306.4950","NORAD_CAT_ID":"50840","OBJECT_ID":"2022-001AP","REV_AT_EPOCH":"3410","ARG_OF_PERICENTER":"53.6196","LAUNCH_DATE":"2022-01-06","CENTER_NAME":"EARTH","OBJECT_TYPE":"PAYLOAD","CLASSIFICATION_TYPE":"U","MEAN_ELEMENT_THEORY":"SGP4"},{"RCS_SIZE":"LARGE","MEAN_MOTION":"15.08841319","APOAPSIS":"541.084","OBJECT_NAME":"STARLINK-3300","PERIOD":"95.437","MEAN_MOTION_DOT":"0.00001561","ECCENTRICITY":"0.00019410","MEAN_MOTION_DDOT":"0.0000000000000","ELEMENT_SET_NO":"999","TIME_SYSTEM":"UTC","REF_FRAME":"TEME","EPHEMERIS_TYPE":"0","PERIAPSIS":"538.399","TLE_LINE1":"1 50841U 22001AQ  22230.45799148  .00001561  00000-0  11617-3 0  9991","SITE":"AFETR","EPOCH":"2022-08-18T10:59:30.463872","COUNTRY_CODE":"US","INCLINATION":"53.2172","TLE_LINE2":"2 50841  53.2172 251.5967 0001941  49.1109 311.0051 15.08841319 35429","GP_ID":"210453118","SEMIMAJOR_AXIS":"6917.876","BSTAR":"0.00011617000000","RA_OF_ASC_NODE":"251.5967","FILE":"3539605","NORAD_CAT_ID":"50841","OBJECT_ID":"2022-001AQ","DECAY_DATE":null,"MEAN_ANOMALY":"311.0051","OBJECT_TYPE":"PAYLOAD","REV_AT_EPOCH":"3542","LAUNCH_DATE":"2022-01-06","ARG_OF_PERICENTER":"49.1109","CENTER_NAME":"EARTH","MEAN_ELEMENT_THEORY":"SGP4","CLASSIFICATION_TYPE":"U"},{"MEAN_ANOMALY":"303.0552","DECAY_DATE":null,"OBJECT_ID":"2022-001AR","NORAD_CAT_ID":"50842","FILE":"3539281","RA_OF_ASC_NODE":"251.6714","BSTAR":"0.00014025000000","SEMIMAJOR_AXIS":"6917.858","GP_ID":"210443188","TLE_LINE2":"2 50842  53.2166 251.6714 0001726  57.0606 303.0552 15.08847470 34111","INCLINATION":"53.2166","CLASSIFICATION_TYPE":"U","MEAN_ELEMENT_THEORY":"SGP4","CENTER_NAME":"EARTH","LAUNCH_DATE":"2022-01-06","ARG_OF_PERICENTER":"57.0606","REV_AT_EPOCH":"3411","OBJECT_TYPE":"PAYLOAD","REF_FRAME":"TEME","TIME_SYSTEM":"UTC","ELEMENT_SET_NO":"999","MEAN_MOTION_DDOT":"0.0000000000000","PERIOD":"95.437","MEAN_MOTION_DOT":"0.00001945","ECCENTRICITY":"0.00017260","OBJECT_NAME":"STARLINK-3302","APOAPSIS":"540.917","RCS_SIZE":"LARGE","MEAN_MOTION":"15.08847470","COUNTRY_CODE":"US","EPOCH":"2022-08-18T10:38:17.281248","SITE":"AFETR","TLE_LINE1":"1 50842U 22001AR  22230.44325557  .00001945  00000-0  14025-3 0  9992","PERIAPSIS":"538.529","EPHEMERIS_TYPE":"0"},{"CLASSIFICATION_TYPE":"U","MEAN_ELEMENT_THEORY":"SGP4","LAUNCH_DATE":"2022-01-06","ARG_OF_PERICENTER":"47.4398","CENTER_NAME":"EARTH","REV_AT_EPOCH":"3413","OBJECT_TYPE":"PAYLOAD","DECAY_DATE":null,"MEAN_ANOMALY":"312.6761","NORAD_CAT_ID":"50843","OBJECT_ID":"2022-001AS","RA_OF_ASC_NODE":"251.2778","FILE":"3539615","SEMIMAJOR_AXIS":"6917.854","GP_ID":"210476669","BSTAR":"0.00003872200000","INCLINATION":"53.2167","TLE_LINE2":"2 50843  53.2167 251.2778 0001974  47.4398 312.6761 15.08848556 34131","EPOCH":"2022-08-18T12:45:28.935360","COUNTRY_CODE":"US","TLE_LINE1":"1 50843U 22001AS  22230.53158490  .00000328  00000-0  38722-4 0  9998","SITE":"AFETR","EPHEMERIS_TYPE":"0","PERIAPSIS":"538.354","REF_FRAME":"TEME","ELEMENT_SET_NO":"999","TIME_SYSTEM":"UTC","MEAN_MOTION_DDOT":"0.0000000000000","PERIOD":"95.437","MEAN_MOTION_DOT":"0.00000328","OBJECT_NAME":"STARLINK-3325","ECCENTRICITY":"0.00019740","APOAPSIS":"541.085","MEAN_MOTION":"15.08848556","RCS_SIZE":"LARGE"},{"PERIAPSIS":"538.484","EPHEMERIS_TYPE":"0","SITE":"AFETR","TLE_LINE1":"1 50844U 22001AT  22230.43223394  .00000179  00000-0  29338-4 0  9991","COUNTRY_CODE":"US","EPOCH":"2022-08-18T10:22:25.012416","MEAN_MOTION":"15.08834947","RCS_SIZE":"LARGE","APOAPSIS":"541.038","PERIOD":"95.438","MEAN_MOTION_DOT":"0.00000179","ECCENTRICITY":"0.00018460","OBJECT_NAME":"STARLINK-3326","MEAN_MOTION_DDOT":"0.0000000000000","TIME_SYSTEM":"UTC","ELEMENT_SET_NO":"999","REF_FRAME":"TEME","OBJECT_TYPE":"PAYLOAD","REV_AT_EPOCH":"3540","CENTER_NAME":"EARTH","ARG_OF_PERICENTER":"45.0690","LAUNCH_DATE":"2022-01-06","MEAN_ELEMENT_THEORY":"SGP4","CLASSIFICATION_TYPE":"U","TLE_LINE2":"2 50844  53.2163 251.7242 0001846  45.0690 315.0452 15.08834947 35400","INCLINATION":"53.2163","BSTAR":"0.00002933800000","SEMIMAJOR_AXIS":"6917.896","GP_ID":"210452779","RA_OF_ASC_NODE":"251.7242","FILE":"3539581","OBJECT_ID":"2022-001AT","NORAD_CAT_ID":"50844","MEAN_ANOMALY":"315.0452","DECAY_DATE":null},{"PERIOD":"95.438","MEAN_MOTION_DOT":"0.00000351","OBJECT_NAME":"STARLINK-3230","ECCENTRICITY":"0.00018560","MEAN_MOTION":"15.08836440","RCS_SIZE":"LARGE","APOAPSIS":"541.040","REF_FRAME":"TEME","MEAN_MOTION_DDOT":"0.0000000000000","TIME_SYSTEM":"UTC","ELEMENT_SET_NO":"999","PERIAPSIS":"538.472","EPHEMERIS_TYPE":"0","COUNTRY_CODE":"US","EPOCH":"2022-08-18T11:26:00.027744","SITE":"AFETR","TLE_LINE1":"1 50845U 22001AU  22230.47638921  .00000351  00000-0  40135-4 0  9992","FILE":"3539581","RA_OF_ASC_NODE":"251.5213","TLE_LINE2":"2 50845  53.2177 251.5213 0001856  47.6799 312.4350 15.08836440 35364","INCLINATION":"53.2177","BSTAR":"0.00004013500000","GP_ID":"210452786","SEMIMAJOR_AXIS":"6917.891","MEAN_ANOMALY":"312.4350","DECAY_DATE":null,"OBJECT_ID":"2022-001AU","NORAD_CAT_ID":"50845","REV_AT_EPOCH":"3536","CENTER_NAME":"EARTH","ARG_OF_PERICENTER":"47.6799","LAUNCH_DATE":"2022-01-06","OBJECT_TYPE":"PAYLOAD","CLASSIFICATION_TYPE":"U","MEAN_ELEMENT_THEORY":"SGP4"}];
